{"type": "FeatureCollection", "features": [ {"type": "Feature", "properties": {"norad_id": 30725, "name": "FENGYUN 1C DEB", "group": "fengyun-1c-debris", "lat": 15.93158998039361, "lon": 45.375790062672046, "alt_km": 787.8441851145899, "timestamp": "2025-12-05T05:43:15.387897+00:00", "meta": {"OBJECT_NAME": "FENGYUN 1C DEB", "OBJECT_ID": "1999-025ASK", "EPOCH": "2025-12-03T16:55:42.398976", "MEAN_MOTION": 14.16002295, "ECCENTRICITY": 0.00878255, "INCLINATION": 99.0084, "RA_OF_ASC_NODE": 46.4213, "ARG_OF_PERICENTER": 56.3355, "MEAN_ANOMALY": 70.0742, "EPHEMERIS_TYPE": 0, "CLASSIFICATION_TYPE": "U", "NORAD_CAT_ID": 30725, "ELEMENT_SET_NO": 999, "REV_AT_EPOCH": 96220, "BSTAR": 0.0017628258, "MEAN_MOTION_DOT": 3.566e-05, "MEAN_MOTION_DDOT": 0}, "tle": {"line1": "1 30725U 99025ASK 25337.70535184  .00003566  00000+0  17628-2 0  9990", "line2": "2 30725  99.0084  46.4213 0087825  56.3355  70.0742 14.16002295962205"}}, "geometry": {"type": "Point", "coordinates": [45.375790062672046, 15.93158998039361]}}, {"type": "Feature", "properties": {"norad_id": 30726, "name": "FENGYUN 1C DEB", "group": "fengyun-1c-debris", "lat": -50.74510003856116, "lon": 149.24648847398745, "alt_km": 814.3232878953067, "timestamp": "2025-12-05T05:43:15.387907+00:00", "meta": {"OBJECT_NAME": "FENGYUN 1C DEB", "OBJECT_ID": "1999-025ASL", "EPOCH": "2025-11-29T12:53:39.035904", "MEAN_MOTION": 14.09215956, "ECCENTRICITY": 0.00781479, "INCLINATION": 99.2682, "RA_OF_ASC_NODE": 334.9104, "ARG_OF_PERICENTER": 263.1597, "MEAN_ANOMALY": 221.508, "EPHEMERIS_TYPE": 0, "CLASSIFICATION_TYPE": "U", "NORAD_CAT_ID": 30726, "ELEMENT_SET_NO": 999, "REV_AT_EPOCH": 95797, "BSTAR": 0.0012898883, "MEAN_MOTION_DOT": 2.26e-05, "MEAN_MOTION_DDOT": 0}, "tle": {"line1": "1 30726U 99025ASL 25333.53725736  .00002260  00000+0  12899-2 0  9997", "line2": "2 30726  99.2682 334.9104 0078147 263.1597 221.5080 14.09215956957977"}}, "geometry": {"type": "Point", "coordinates": [149.24648847398745, -50.74510003856116]}}, {"type": "Feature", "properties": {"norad_id": 30728, "name": "FENGYUN 1C DEB", "group": "fengyun-1c-debris", "lat": 60.58843043699428, "lon": -178.40873563837613, "alt_km": 738.4260096681337, "timestamp": "2025-12-05T05:43:15.387917+00:00", "meta": {"OBJECT_NAME": "FENGYUN 1C DEB", "OBJECT_ID": "1999-025ASN", "EPOCH": "2025-12-04T07:14:36.028032", "MEAN_MOTION": 14.2346956, "ECCENTRICITY": 0.0099515, "INCLINATION": 98.5295, "RA_OF_ASC_NODE": 345.2443, "ARG_OF_PERICENTER": 106.2834, "MEAN_ANOMALY": 254.9318, "EPHEMERIS_TYPE": 0, "CLASSIFICATION_TYPE": "U", "NORAD_CAT_ID": 30728, "ELEMENT_SET_NO": 999, "REV_AT_EPOCH": 97569, "BSTAR": 0.00013635, "MEAN_MOTION_DOT": 2.85e-06, "MEAN_MOTION_DDOT": 0}, "tle": {"line1": "1 30728U 99025ASN 25338.30180588  .00000285  00000+0  13635-3 0  9994", "line2": "2 30728  98.5295 345.2443 0099515 106.2834 254.9318 14.23469560975696"}}, "geometry": {"type": "Point", "coordinates": [-178.40873563837613, 60.58843043699428]}}, {"type": "Feature", "properties": {"norad_id": 30730, "name": "FENGYUN 1C DEB", "group": "fengyun-1c-debris", "lat": 1.7846431090347714, "lon": 18.21945928025248, "alt_km": 789.2044945691714, "timestamp": "2025-12-05T05:43:15.387928+00:00", "meta": {"OBJECT_NAME": "FENGYUN 1C DEB", "OBJECT_ID": "1999-025ASQ", "EPOCH": "2025-12-04T01:20:27.271680", "MEAN_MOTION": 14.25413717, "ECCENTRICITY": 0.00788309, "INCLINATION": 98.6192, "RA_OF_ASC_NODE": 17.3282, "ARG_OF_PERICENTER": 74.5183, "MEAN_ANOMALY": 343.6766, "EPHEMERIS_TYPE": 0, "CLASSIFICATION_TYPE": "U", "NORAD_CAT_ID": 30730, "ELEMENT_SET_NO": 999, "REV_AT_EPOCH": 96882, "BSTAR": 0.0018887677, "MEAN_MOTION_DOT": 4.563e-05, "MEAN_MOTION_DDOT": 0}, "tle": {"line1": "1 30730U 99025ASQ 25338.05587120  .00004563  00000+0  18888-2 0  9999", "line2": "2 30730  98.6192  17.3282 0078830  74.5183 343.6766 14.25413717968820"}}, "geometry": {"type": "Point", "coordinates": [18.21945928025248, 1.7846431090347714]}}, {"type": "Feature", "properties": {"norad_id": 30731, "name": "FENGYUN 1C DEB", "group": "fengyun-1c-debris", "lat": 80.81161928911914, "lon": -46.97474911932128, "alt_km": 755.8291149792549, "timestamp": "2025-12-05T05:43:15.387939+00:00", "meta": {"OBJECT_NAME": "FENGYUN 1C DEB", "OBJECT_ID": "1999-025ASR", "EPOCH": "2025-12-04T16:40:37.079040", "MEAN_MOTION": 14.41588336, "ECCENTRICITY": 0.001421, "INCLINATION": 98.8605, "RA_OF_ASC_NODE": 57.8054, "ARG_OF_PERICENTER": 268.624, "MEAN_ANOMALY": 244.7975, "EPHEMERIS_TYPE": 0, "CLASSIFICATION_TYPE": "U", "NORAD_CAT_ID": 30731, "ELEMENT_SET_NO": 999, "REV_AT_EPOCH": 97240, "BSTAR": 0.0055152, "MEAN_MOTION_DOT": 0.00017962, "MEAN_MOTION_DDOT": 0}, "tle": {"line1": "1 30731U 99025ASR 25338.69487360  .00017962  00000+0  55152-2 0  9997", "line2": "2 30731  98.8605  57.8054 0014210 268.6240 244.7975 14.41588336972400"}}, "geometry": {"type": "Point", "coordinates": [-46.97474911932128, 80.81161928911914]}}, {"type": "Feature", "properties": {"norad_id": 30732, "name": "FENGYUN 1C DEB", "group": "fengyun-1c-debris", "lat": 40.15523704900189, "lon": -172.9014308195639, "alt_km": 877.5115443042687, "timestamp": "2025-12-05T05:43:15.387949+00:00", "meta": {"OBJECT_NAME": "FENGYUN 1C DEB", "OBJECT_ID": "1999-025ASS", "EPOCH": "2025-12-04T12:41:40.378848", "MEAN_MOTION": 14.03883342, "ECCENTRICITY": 0.0123614, "INCLINATION": 98.8045, "RA_OF_ASC_NODE": 358.8974, "ARG_OF_PERICENTER": 232.087, "MEAN_ANOMALY": 285.0343, "EPHEMERIS_TYPE": 0, "CLASSIFICATION_TYPE": "U", "NORAD_CAT_ID": 30732, "ELEMENT_SET_NO": 999, "REV_AT_EPOCH": 96076, "BSTAR": 0.0007527, "MEAN_MOTION_DOT": 1.227e-05, "MEAN_MOTION_DDOT": 0}, "tle": {"line1": "1 30732U 99025ASS 25338.52893957  .00001227  00000+0  75270-3 0  9994", "line2": "2 30732  98.8045 358.8974 0123614 232.0870 285.0343 14.03883342960763"}}, "geometry": {"type": "Point", "coordinates": [-172.9014308195639, 40.15523704900189]}}, {"type": "Feature", "properties": {"norad_id": 30735, "name": "FENGYUN 1C DEB", "group": "fengyun-1c-debris", "lat": -9.670293955969186, "lon": -131.18053315151795, "alt_km": 806.6110709073819, "timestamp": "2025-12-05T05:43:15.387959+00:00", "meta": {"OBJECT_NAME": "FENGYUN 1C DEB", "OBJECT_ID": "1999-025ASV", "EPOCH": "2025-12-03T04:10:37.368768", "MEAN_MOTION": 14.23845329, "ECCENTRICITY": 0.00589255, "INCLINATION": 98.7657, "RA_OF_ASC_NODE": 48.2686, "ARG_OF_PERICENTER": 272.618, "MEAN_ANOMALY": 142.1749, "EPHEMERIS_TYPE": 0, "CLASSIFICATION_TYPE": "U", "NORAD_CAT_ID": 30735, "ELEMENT_SET_NO": 999, "REV_AT_EPOCH": 96612, "BSTAR": 0.002233703, "MEAN_MOTION_DOT": 5.164e-05, "MEAN_MOTION_DDOT": 0}, "tle": {"line1": "1 30735U 99025ASV 25337.17404362  .00005164  00000+0  22337-2 0  9994", "line2": "2 30735  98.7657  48.2686 0058925 272.6180 142.1749 14.23845329966124"}}, "geometry": {"type": "Point", "coordinates": [-131.18053315151795, -9.670293955969186]}}, {"type": "Feature", "properties": {"norad_id": 30736, "name": "FENGYUN 1C DEB", "group": "fengyun-1c-debris", "lat": -40.92899213100445, "lon": 25.63251999789823, "alt_km": 1121.162072685148, "timestamp": "2025-12-05T05:43:15.387970+00:00", "meta": {"OBJECT_NAME": "FENGYUN 1C DEB", "OBJECT_ID": "1999-025ASW", "EPOCH": "2025-12-04T01:58:09.333408", "MEAN_MOTION": 13.61597352, "ECCENTRICITY": 0.02807621, "INCLINATION": 98.7853, "RA_OF_ASC_NODE": 16.8843, "ARG_OF_PERICENTER": 77.1136, "MEAN_ANOMALY": 339.3933, "EPHEMERIS_TYPE": 0, "CLASSIFICATION_TYPE": "U", "NORAD_CAT_ID": 30736, "ELEMENT_SET_NO": 999, "REV_AT_EPOCH": 92735, "BSTAR": 0.0034506707, "MEAN_MOTION_DOT": 3.401e-05, "MEAN_MOTION_DDOT": 0}, "tle": {"line1": "1 30736U 99025ASW 25338.08205247  .00003401  00000+0  34507-2 0  9991", "line2": "2 30736  98.7853  16.8843 0280762  77.1136 339.3933 13.61597352927352"}}, "geometry": {"type": "Point", "coordinates": [25.63251999789823, -40.92899213100445]}}, {"type": "Feature", "properties": {"norad_id": 30737, "name": "FENGYUN 1C DEB", "group": "fengyun-1c-debris", "lat": -81.34304605088387, "lon": 59.31220653284251, "alt_km": 846.1615236206299, "timestamp": "2025-12-05T05:43:15.387980+00:00", "meta": {"OBJECT_NAME": "FENGYUN 1C DEB", "OBJECT_ID": "1999-025ASX", "EPOCH": "2025-12-04T10:32:33.499104", "MEAN_MOTION": 14.18237883, "ECCENTRICITY": 0.0023705, "INCLINATION": 98.5785, "RA_OF_ASC_NODE": 321.0334, "ARG_OF_PERICENTER": 154.9735, "MEAN_ANOMALY": 356.0454, "EPHEMERIS_TYPE": 0, "CLASSIFICATION_TYPE": "U", "NORAD_CAT_ID": 30737, "ELEMENT_SET_NO": 999, "REV_AT_EPOCH": 96915, "BSTAR": 0.00054024, "MEAN_MOTION_DOT": 1.072e-05, "MEAN_MOTION_DDOT": 0}, "tle": {"line1": "1 30737U 99025ASX 25338.43927661  .00001072  00000+0  54024-3 0  9991", "line2": "2 30737  98.5785 321.0334 0023705 154.9735 356.0454 14.18237883969153"}}, "geometry": {"type": "Point", "coordinates": [59.31220653284251, -81.34304605088387]}}, {"type": "Feature", "properties": {"norad_id": 30739, "name": "FENGYUN 1C DEB", "group": "fengyun-1c-debris", "lat": 64.15408412523176, "lon": 164.9741391720317, "alt_km": 888.0832049789497, "timestamp": "2025-12-05T05:43:15.387991+00:00", "meta": {"OBJECT_NAME": "FENGYUN 1C DEB", "OBJECT_ID": "1999-025ASZ", "EPOCH": "2025-12-03T11:29:29.050944", "MEAN_MOTION": 14.14924256, "ECCENTRICITY": 0.01010319, "INCLINATION": 98.6918, "RA_OF_ASC_NODE": 324.8516, "ARG_OF_PERICENTER": 343.7575, "MEAN_ANOMALY": 172.0943, "EPHEMERIS_TYPE": 0, "CLASSIFICATION_TYPE": "U", "NORAD_CAT_ID": 30739, "ELEMENT_SET_NO": 999, "REV_AT_EPOCH": 96732, "BSTAR": 0.0006637243, "MEAN_MOTION_DOT": 1.304e-05, "MEAN_MOTION_DDOT": 0}, "tle": {"line1": "1 30739U 99025ASZ 25337.47880846  .00001304  00000+0  66372-3 0  9996", "line2": "2 30739  98.6918 324.8516 0101031 343.7575 172.0943 14.14924256967325"}}, "geometry": {"type": "Point", "coordinates": [164.9741391720317, 64.15408412523176]}}]}